start=new Date('2022-09-19T00:00:00.000Z').valueOf();
sats=[{"SITE":"AFETR","RA_OF_ASC_NODE":"266.6074","OBJECT_ID":"2021-012BB","ECCENTRICITY":"0.00027100","COUNTRY_CODE":"US","FILE":"3577422","SEMIMAJOR_AXIS":"6910.859","EPOCH":"2022-09-18T13:05:55.366944","CLASSIFICATION_TYPE":"U","MEAN_MOTION":"15.11140077","GP_ID":"212963460","INCLINATION":"53.0520","REF_FRAME":"TEME","REV_AT_EPOCH":"9019","APOAPSIS":"534.597","PERIOD":"95.292","TIME_SYSTEM":"UTC","ELEMENT_SET_NO":"999","OBJECT_NAME":"STARLINK-2060","CENTER_NAME":"EARTH","BSTAR":"0.00095108000000","MEAN_MOTION_DDOT":"0.0000000000000","TLE_LINE1":"1 47669U 21012BB  22261.54577971  .00015870  00000-0  95108-3 0  9993","MEAN_ELEMENT_THEORY":"SGP4","DECAY_DATE":null,"PERIAPSIS":"530.851","ARG_OF_PERICENTER":"90.3775","EPHEMERIS_TYPE":"0","TLE_LINE2":"2 47669  53.0520 266.6074 0002710  90.3775 269.7527 15.11140077 90195","LAUNCH_DATE":"2021-02-16","OBJECT_TYPE":"PAYLOAD","RCS_SIZE":"LARGE","MEAN_ANOMALY":"269.7527","NORAD_CAT_ID":"47669","MEAN_MOTION_DOT":"0.00015870"},{"PERIOD":"95.592","APOAPSIS":"548.284","TIME_SYSTEM":"UTC","ELEMENT_SET_NO":"999","OBJECT_NAME":"STARLINK-2062","CENTER_NAME":"EARTH","BSTAR":"0.00010324000000","MEAN_MOTION_DDOT":"0.0000000000000","MEAN_MOTION":"15.06398883","CLASSIFICATION_TYPE":"U","GP_ID":"212964209","INCLINATION":"53.0567","REF_FRAME":"TEME","REV_AT_EPOCH":"8914","COUNTRY_CODE":"US","FILE":"3577422","SEMIMAJOR_AXIS":"6925.352","EPOCH":"2022-09-18T16:59:47.905440","RA_OF_ASC_NODE":"343.8109","SITE":"AFETR","OBJECT_ID":"2021-012BC","ECCENTRICITY":"0.00015410","NORAD_CAT_ID":"47670","MEAN_MOTION_DOT":"0.00001257","TLE_LINE2":"2 47670  53.0567 343.8109 0001541  49.1215 310.9907 15.06398883 89145","LAUNCH_DATE":"2021-02-16","OBJECT_TYPE":"PAYLOAD","RCS_SIZE":"LARGE","MEAN_ANOMALY":"310.9907","DECAY_DATE":null,"PERIAPSIS":"546.150","ARG_OF_PERICENTER":"49.1215","EPHEMERIS_TYPE":"0","TLE_LINE1":"1 47670U 21012BC  22261.70819335  .00001257  00000-0  10324-3 0  9997","MEAN_ELEMENT_THEORY":"SGP4"},{"GP_ID":"212964954","INCLINATION":"53.0548","REF_FRAME":"TEME","REV_AT_EPOCH":"8913","MEAN_MOTION":"15.06394302","CLASSIFICATION_TYPE":"U","CENTER_NAME":"EARTH","BSTAR":"0.00019133000000","MEAN_MOTION_DDOT":"0.0000000000000","APOAPSIS":"548.146","PERIOD":"95.593","ELEMENT_SET_NO":"999","TIME_SYSTEM":"UTC","OBJECT_NAME":"STARLINK-2064","ECCENTRICITY":"0.00013210","SITE":"AFETR","RA_OF_ASC_NODE":"344.4764","OBJECT_ID":"2021-012BD","EPOCH":"2022-09-18T13:22:12.536256","COUNTRY_CODE":"US","FILE":"3577422","SEMIMAJOR_AXIS":"6925.366","RCS_SIZE":"LARGE","MEAN_ANOMALY":"281.0394","TLE_LINE2":"2 47671  53.0548 344.4764 0001321  79.0744 281.0394 15.06394302 89133","LAUNCH_DATE":"2021-02-16","OBJECT_TYPE":"PAYLOAD","MEAN_MOTION_DOT":"0.00002569","NORAD_CAT_ID":"47671","MEAN_ELEMENT_THEORY":"SGP4","TLE_LINE1":"1 47671U 21012BD  22261.55708954  .00002569  00000-0  19133-3 0  9999","EPHEMERIS_TYPE":"0","DECAY_DATE":null,"PERIAPSIS":"546.316","ARG_OF_PERICENTER":"79.0744"},{"TLE_LINE1":"1 47672U 21012BE  22261.60222701  .00003749  00000-0  27044-3 0  9998","MEAN_ELEMENT_THEORY":"SGP4","ARG_OF_PERICENTER":"80.1714","DECAY_DATE":null,"PERIAPSIS":"546.346","EPHEMERIS_TYPE":"0","OBJECT_TYPE":"PAYLOAD","TLE_LINE2":"2 47672  53.0543 334.2970 0001236  80.1714 279.9414 15.06403846 89256","LAUNCH_DATE":"2021-02-16","MEAN_ANOMALY":"279.9414","RCS_SIZE":"LARGE","NORAD_CAT_ID":"47672","MEAN_MOTION_DOT":"0.00003749","OBJECT_ID":"2021-012BE","SITE":"AFETR","RA_OF_ASC_NODE":"334.2970","ECCENTRICITY":"0.00012360","FILE":"3577422","SEMIMAJOR_AXIS":"6925.337","COUNTRY_CODE":"US","EPOCH":"2022-09-18T14:27:12.413664","CLASSIFICATION_TYPE":"U","MEAN_MOTION":"15.06403846","REF_FRAME":"TEME","REV_AT_EPOCH":"8925","GP_ID":"212965207","INCLINATION":"53.0543","OBJECT_NAME":"STARLINK-2065","APOAPSIS":"548.058","ELEMENT_SET_NO":"999","PERIOD":"95.592","TIME_SYSTEM":"UTC","MEAN_MOTION_DDOT":"0.0000000000000","CENTER_NAME":"EARTH","BSTAR":"0.00027044000000"},{"EPHEMERIS_TYPE":"0","ARG_OF_PERICENTER":"67.6807","DECAY_DATE":null,"PERIAPSIS":"546.266","MEAN_ELEMENT_THEORY":"SGP4","TLE_LINE1":"1 47673U 21012BF  22261.51283960  .00001395  00000-0  11253-3 0  9993","MEAN_MOTION_DOT":"0.00001395","NORAD_CAT_ID":"47673","MEAN_ANOMALY":"292.4326","RCS_SIZE":"LARGE","OBJECT_TYPE":"PAYLOAD","TLE_LINE2":"2 47673  53.0564 344.6986 0001363  67.6807 292.4326 15.06401066 89115","LAUNCH_DATE":"2021-02-16","EPOCH":"2022-09-18T12:18:29.341440","FILE":"3577171","SEMIMAJOR_AXIS":"6925.345","COUNTRY_CODE":"US","ECCENTRICITY":"0.00013630","OBJECT_ID":"2021-012BF","SITE":"AFETR","RA_OF_ASC_NODE":"344.6986","MEAN_MOTION_DDOT":"0.0000000000000","CENTER_NAME":"EARTH","BSTAR":"0.00011253000000","OBJECT_NAME":"STARLINK-2066","PERIOD":"95.592","APOAPSIS":"548.154","TIME_SYSTEM":"UTC","ELEMENT_SET_NO":"999","REF_FRAME":"TEME","REV_AT_EPOCH":"8911","GP_ID":"212907159","INCLINATION":"53.0564","MEAN_MOTION":"15.06401066","CLASSIFICATION_TYPE":"U"},{"ECCENTRICITY":"0.00013760","SITE":"AFETR","OBJECT_ID":"2021-012BG","RA_OF_ASC_NODE":"344.6133","EPOCH":"2022-09-18T12:38:21.429888","COUNTRY_CODE":"US","SEMIMAJOR_AXIS":"6925.355","FILE":"3577171","INCLINATION":"53.0570","GP_ID":"212907402","REV_AT_EPOCH":"8912","REF_FRAME":"TEME","MEAN_MOTION":"15.06398037","CLASSIFICATION_TYPE":"U","BSTAR":"0.00005985200000","CENTER_NAME":"EARTH","MEAN_MOTION_DDOT":"0.0000000000000","TIME_SYSTEM":"UTC","APOAPSIS":"548.173","PERIOD":"95.592","ELEMENT_SET_NO":"999","OBJECT_NAME":"STARLINK-2067","MEAN_ELEMENT_THEORY":"SGP4","TLE_LINE1":"1 47674U 21012BG  22261.52663692  .00000610  00000-0  59852-4 0  9996","EPHEMERIS_TYPE":"0","PERIAPSIS":"546.267","DECAY_DATE":null,"ARG_OF_PERICENTER":"72.3353","RCS_SIZE":"LARGE","MEAN_ANOMALY":"287.7786","LAUNCH_DATE":"2021-02-16","TLE_LINE2":"2 47674  53.0570 344.6133 0001376  72.3353 287.7786 15.06398037 89121","OBJECT_TYPE":"PAYLOAD","MEAN_MOTION_DOT":"0.00000610","NORAD_CAT_ID":"47674"},{"DECAY_DATE":null,"PERIAPSIS":"546.302","ARG_OF_PERICENTER":"99.1198","EPHEMERIS_TYPE":"0","TLE_LINE1":"1 47675U 21012BH  22261.52022108  .00000976  00000-0  84438-4 0  9991","MEAN_ELEMENT_THEORY":"SGP4","NORAD_CAT_ID":"47675","MEAN_MOTION_DOT":"0.00000976","TLE_LINE2":"2 47675  53.0557 344.6516 0001343  99.1198 260.9943 15.06393861 89128","LAUNCH_DATE":"2021-02-16","OBJECT_TYPE":"PAYLOAD","RCS_SIZE":"LARGE","MEAN_ANOMALY":"260.9943","COUNTRY_CODE":"US","FILE":"3577171","SEMIMAJOR_AXIS":"6925.367","EPOCH":"2022-09-18T12:29:07.101312","OBJECT_ID":"2021-012BH","SITE":"AFETR","RA_OF_ASC_NODE":"344.6516","ECCENTRICITY":"0.00013430","APOAPSIS":"548.162","PERIOD":"95.593","ELEMENT_SET_NO":"999","TIME_SYSTEM":"UTC","OBJECT_NAME":"STARLINK-2078","CENTER_NAME":"EARTH","BSTAR":"0.00008443800000","MEAN_MOTION_DDOT":"0.0000000000000","CLASSIFICATION_TYPE":"U","MEAN_MOTION":"15.06393861","GP_ID":"212906661","INCLINATION":"53.0557","REF_FRAME":"TEME","REV_AT_EPOCH":"8912"},{"RCS_SIZE":"LARGE","MEAN_ANOMALY":"289.6888","TLE_LINE2":"2 47676  53.0519 234.0726 0001723  70.4286 289.6888 15.06396453 90661","LAUNCH_DATE":"2021-02-16","OBJECT_TYPE":"PAYLOAD","MEAN_MOTION_DOT":"0.00002568","NORAD_CAT_ID":"47676","MEAN_ELEMENT_THEORY":"SGP4","TLE_LINE1":"1 47676U 21012BJ  22261.64830290  .00002568  00000-0  19127-3 0  9995","EPHEMERIS_TYPE":"0","DECAY_DATE":null,"PERIAPSIS":"546.031","ARG_OF_PERICENTER":"70.4286","GP_ID":"212964708","INCLINATION":"53.0519","REF_FRAME":"TEME","REV_AT_EPOCH":"9066","MEAN_MOTION":"15.06396453","CLASSIFICATION_TYPE":"U","CENTER_NAME":"EARTH","BSTAR":"0.00019127000000","MEAN_MOTION_DDOT":"0.0000000000000","APOAPSIS":"548.418","PERIOD":"95.592","TIME_SYSTEM":"UTC","ELEMENT_SET_NO":"999","OBJECT_NAME":"STARLINK-2083","ECCENTRICITY":"0.00017230","RA_OF_ASC_NODE":"234.0726","SITE":"AFETR","OBJECT_ID":"2021-012BJ","EPOCH":"2022-09-18T15:33:33.370560","COUNTRY_CODE":"US","FILE":"3577422","SEMIMAJOR_AXIS":"6925.359"},{"EPHEMERIS_TYPE":"0","PERIAPSIS":"546.162","DECAY_DATE":null,"ARG_OF_PERICENTER":"63.2047","MEAN_ELEMENT_THEORY":"SGP4","TLE_LINE1":"1 47677U 21012BK  22261.77175616  .00001509  00000-0  12021-3 0  9994","MEAN_MOTION_DOT":"0.00001509","NORAD_CAT_ID":"47677","RCS_SIZE":"LARGE","MEAN_ANOMALY":"296.9098","LAUNCH_DATE":"2021-02-16","TLE_LINE2":"2 47677  53.0559   3.5165 0001534  63.2047 296.9098 15.06396459 88877","OBJECT_TYPE":"PAYLOAD","EPOCH":"2022-09-18T18:31:19.732224","COUNTRY_CODE":"US","SEMIMAJOR_AXIS":"6925.359","FILE":"3577422","ECCENTRICITY":"0.00015340","RA_OF_ASC_NODE":"3.5165","SITE":"AFETR","OBJECT_ID":"2021-012BK","BSTAR":"0.00012021000000","CENTER_NAME":"EARTH","MEAN_MOTION_DDOT":"0.0000000000000","APOAPSIS":"548.287","PERIOD":"95.592","ELEMENT_SET_NO":"999","TIME_SYSTEM":"UTC","OBJECT_NAME":"STARLINK-2090","INCLINATION":"53.0559","GP_ID":"212963461","REV_AT_EPOCH":"8887","REF_FRAME":"TEME","CLASSIFICATION_TYPE":"U","MEAN_MOTION":"15.06396459"},{"TLE_LINE1":"1 47679U 21012BM  22261.66855375  .00001469  00000-0  11754-3 0  9998","MEAN_ELEMENT_THEORY":"SGP4","DECAY_DATE":null,"PERIAPSIS":"546.282","ARG_OF_PERICENTER":"74.1562","EPHEMERIS_TYPE":"0","TLE_LINE2":"2 47679  53.0563   4.0002 0001383  74.1562 285.9579 15.06391405 88873","LAUNCH_DATE":"2021-02-16","OBJECT_TYPE":"PAYLOAD","RCS_SIZE":"LARGE","MEAN_ANOMALY":"285.9579","NORAD_CAT_ID":"47679","MEAN_MOTION_DOT":"0.00001469","OBJECT_ID":"2021-012BM","SITE":"AFETR","RA_OF_ASC_NODE":"4.0002","ECCENTRICITY":"0.00013830","COUNTRY_CODE":"US","FILE":"3577422","SEMIMAJOR_AXIS":"6925.375","EPOCH":"2022-09-18T16:02:43.044000","CLASSIFICATION_TYPE":"U","MEAN_MOTION":"15.06391405","GP_ID":"212964210","INCLINATION":"53.0563","REF_FRAME":"TEME","REV_AT_EPOCH":"8887","ELEMENT_SET_NO":"999","APOAPSIS":"548.198","PERIOD":"95.593","TIME_SYSTEM":"UTC","OBJECT_NAME":"STARLINK-2095","CENTER_NAME":"EARTH","BSTAR":"0.00011754000000","MEAN_MOTION_DDOT":"0.0000000000000"}];
